*******************************************************************************
 Revised: July 31, 2013             Moon / (Earth)                          301
 
 GEOPHYSICAL DATA (updated 2018-Aug-15):
  Vol. mean radius, km  = 1737.53+-0.03    Mass, x10^22 kg       =    7.349
  Radius (gravity), km  = 1738.0           Surface emissivity    =    0.92
  Radius (IAU), km      = 1737.4           GM, km^3/s^2          = 4902.800066
  Density, g/cm^3       =    3.3437        GM 1-sigma, km^3/s^2  =  +-0.0001  
  V(1,0)                =   +0.21          Surface accel., m/s^2 =    1.62
  Earth/Moon mass ratio = 81.3005690769    Farside crust. thick. = ~80 - 90 km
  Mean crustal density  = 2.97+-.07 g/cm^3 Nearside crust. thick.= 58+-8 km 
  Heat flow, Apollo 15  = 3.1+-.6 mW/m^2   Mean angular diameter = 31'05.2"
  Heat flow, Apollo 17  = 2.2+-.5 mW/m^2   Sid. rot. rate, rad/s = 0.0000026617
  Geometric Albedo      = 0.12             Mean solar day        = 29.5306 d
  Obliquity to orbit    = 6.67 deg         Orbit period          = 27.321582 d
  Semi-major axis, a    = 384400 km        Eccentricity          = 0.05490
  Mean motion, rad/s    = 2.6616995x10^-6  Inclination           = 5.145 deg
  Apsidal period        = 3231.50 d        Nodal period          = 6798.38 d
                                 Perihelion  Aphelion    Mean
  Solar Constant (W/m^2)         1414+-7     1323+-7     1368+-7
  Maximum Planetary IR (W/m^2)   1314        1226        1268
  Minimum Planetary IR (W/m^2)      5.2         5.2         5.2
********************************************************************************


*******************************************************************************
Ephemeris / WWW_USER Sat Apr 11 00:05:35 2026 Pasadena, USA      / Horizons
*******************************************************************************
Target body name: Moon (301)                      {source: DE441}
Center body name: Earth (399)                     {source: DE441}
Center-site name: BODY CENTER
*******************************************************************************
Start time      : A.D. 2026-Apr-02 01:58:32.3050 TDB
Stop  time      : A.D. 2026-Apr-10 23:50:22.8580 TDB
Step-size       : 5 minutes
*******************************************************************************
Center geodetic : 0.0, 0.0, 0.0                   {E-lon(deg),Lat(deg),Alt(km)}
Center cylindric: 0.0, 0.0, 0.0                   {E-lon(deg),Dxy(km),Dz(km)}
Center radii    : 6378.137, 6378.137, 6356.752 km {Equator_a, b, pole_c}
Output units    : KM-S
Calendar mode   : Mixed Julian/Gregorian
Output type     : GEOMETRIC cartesian states
Output format   : 2x (pos. & vel. w/uncertainties: XYZ)
EOP file        : eop.260410.p260707
EOP coverage    : DATA-BASED 1962-JAN-20 TO 2026-APR-10. PREDICTS-> 2026-JUL-06
Reference frame : Ecliptic of J2000.0
*******************************************************************************
            JDTDB             Calendar Date (TDB),                      X,                      Y,                      Z,                     VX,                     VY,                     VZ,             X_s,             Y_s,             Z_s,            VX_s,            VY_s,            VZ_s,
********************************************************************************************************************************************************************************************************************************************************************************************************
$$SOE
2461133.019818345, A.D. 2026-Apr-02 12:28:32.3050, -3.764358988744465E+05, -1.176190025619297E+05, -2.252186346846578E+04,  2.646674710968988E-01, -9.619882349070698E-01, -7.213097638003191E-02,            n.a.,            n.a.,            n.a.,            n.a.,            n.a.,            n.a.,
2461133.023290567, A.D. 2026-Apr-02 12:33:32.3050, -3.763563891373987E+05, -1.179075646000999E+05, -2.254349608527962E+04,  2.653974057314650E-01, -9.617585947020232E-01, -7.208646256704998E-02,            n.a.,            n.a.,            n.a.,            n.a.,            n.a.,            n.a.,
2461133.026762790, A.D. 2026-Apr-02 12:38:32.3050, -3.762766604531205E+05, -1.181960576638468E+05, -2.256511534212052E+04,  2.661271192364691E-01, -9.615284054554978E-01, -7.204190989932929E-02,            n.a.,            n.a.,            n.a.,            n.a.,            n.a.,            n.a.,
2461133.030235012, A.D. 2026-Apr-02 12:43:32.3050, -3.761967128880075E+05, -1.184844815884918E+05, -2.258672122733699E+04,  2.668566112340647E-01, -9.612976673948475E-01, -7.199731840945556E-02,            n.a.,            n.a.,            n.a.,            n.a.,            n.a.,            n.a.,
2461133.033707234, A.D. 2026-Apr-02 12:48:32.3050, -3.761165465085686E+05, -1.187728362094250E+05, -2.260831372928726E+04,  2.675858813466701E-01, -9.610663807476569E-01, -7.195268813002548E-02,            n.a.,            n.a.,            n.a.,            n.a.,            n.a.,            n.a.,
2461133.037179456, A.D. 2026-Apr-02 12:53:32.3050, -3.760361613814258E+05, -1.190611213621045E+05, -2.262989283633933E+04,  2.683149291969696E-01, -9.608345457417407E-01, -7.190801909364597E-02,            n.a.,            n.a.,            n.a.,            n.a.,            n.a.,            n.a.,
2461133.040651678, A.D. 2026-Apr-02 12:58:32.3050, -3.759555575733143E+05, -1.193493368820570E+05, -2.265145853687099E+04,  2.690437544079126E-01, -9.606021626051426E-01, -7.186331133293400E-02,            n.a.,            n.a.,            n.a.,            n.a.,            n.a.,            n.a.,
2461133.044123901, A.D. 2026-Apr-02 13:03:32.3050, -3.758747351510827E+05, -1.196374826048774E+05, -2.267301081926989E+04,  2.697723566027138E-01, -9.603692315661363E-01, -7.181856488051724E-02,            n.a.,            n.a.,            n.a.,            n.a.,            n.a.,            n.a.,
2461133.047596123, A.D. 2026-Apr-02 13:08:32.3050, -3.757936941816920E+05, -1.199255583662293E+05, -2.269454967193341E+04,  2.705007354048539E-01, -9.601357528532235E-01, -7.177377976903365E-02,            n.a.,            n.a.,            n.a.,            n.a.,            n.a.,            n.a.,
2461133.051068345, A.D. 2026-Apr-02 13:13:32.3050, -3.757124347322166E+05, -1.202135640018448E+05, -2.271607508326869E+04,  2.712288904380795E-01, -9.599017266951352E-01, -7.172895603113133E-02,            n.a.,            n.a.,            n.a.,            n.a.,            n.a.,            n.a.,
2461133.054540567, A.D. 2026-Apr-02 13:18:32.3050, -3.756309568698436E+05, -1.205014993475247E+05, -2.273758704169271E+04,  2.719568213264024E-01, -9.596671533208296E-01, -7.168409369946893E-02,            n.a.,            n.a.,            n.a.,            n.a.,            n.a.,            n.a.,
2461133.058012790, A.D. 2026-Apr-02 13:23:32.3050, -3.755492606618729E+05, -1.207893642391386E+05, -2.275908553563226E+04,  2.726845276941005E-01, -9.594320329594939E-01, -7.163919280671482E-02,            n.a.,            n.a.,            n.a.,            n.a.,            n.a.,            n.a.,
2461133.061485012, A.D. 2026-Apr-02 13:28:32.3050, -3.754673461757168E+05, -1.210771585126247E+05, -2.278057055352390E+04,  2.734120091657178E-01, -9.591963658405422E-01, -7.159425338554815E-02,            n.a.,            n.a.,            n.a.,            n.a.,            n.a.,            n.a.,
2461133.064957234, A.D. 2026-Apr-02 13:33:32.3050, -3.753852134789006E+05, -1.213648820039901E+05, -2.280204208381403E+04,  2.741392653660644E-01, -9.589601521936161E-01, -7.154927546865764E-02,            n.a.,            n.a.,            n.a.,            n.a.,            n.a.,            n.a.,
2461133.068429456, A.D. 2026-Apr-02 13:38:32.3050, -3.753028626390618E+05, -1.216525345493110E+05, -2.282350011495881E+04,  2.748662959202164E-01, -9.587233922485831E-01, -7.150425908874286E-02,            n.a.,            n.a.,            n.a.,            n.a.,            n.a.,            n.a.,
2461133.071901678, A.D. 2026-Apr-02 13:43:32.3050, -3.752202937239505E+05, -1.219401159847325E+05, -2.284494463542422E+04,  2.755931004535159E-01, -9.584860862355382E-01, -7.145920427851254E-02,            n.a.,            n.a.,            n.a.,            n.a.,            n.a.,            n.a.,
2461133.075373901, A.D. 2026-Apr-02 13:48:32.3050, -3.751375068014291E+05, -1.222276261464686E+05, -2.286637563368614E+04,  2.763196785915717E-01, -9.582482343848026E-01, -7.141411107068635E-02,            n.a.,            n.a.,            n.a.,            n.a.,            n.a.,            n.a.,
2461133.078846123, A.D. 2026-Apr-02 13:53:32.3050, -3.750545019394725E+05, -1.225150648708026E+05, -2.288779309823015E+04,  2.770460299602590E-01, -9.580098369269228E-01, -7.136897949799359E-02,            n.a.,            n.a.,            n.a.,            n.a.,            n.a.,            n.a.,
2461133.082318345, A.D. 2026-Apr-02 13:58:32.3050, -3.749712792061673E+05, -1.228024319940871E+05, -2.290919701755171E+04,  2.777721541857189E-01, -9.577708940926705E-01, -7.132380959317347E-02,            n.a.,            n.a.,            n.a.,            n.a.,            n.a.,            n.a.,
2461133.085790567, A.D. 2026-Apr-02 14:03:32.3050, -3.748878386697128E+05, -1.230897273527437E+05, -2.293058738015612E+04,  2.784980508943599E-01, -9.575314061130435E-01, -7.127860138897535E-02,            n.a.,            n.a.,            n.a.,            n.a.,            n.a.,            n.a.,
2461133.089262790, A.D. 2026-Apr-02 14:08:32.3050, -3.748041803984198E+05, -1.233769507832635E+05, -2.295196417455845E+04,  2.792237197128563E-01, -9.572913732192636E-01, -7.123335491815841E-02,            n.a.,            n.a.,            n.a.,            n.a.,            n.a.,            n.a.,
